SHIYAN 4 (SY-4)         
1 37931U 11068B   21047.40889585  .00000008  00000-0  20180-4 0  9993
2 37931  98.6609  39.5287 0024604  91.8884 268.5116 14.29831846482460
ASIASAT 7               
1 37933U 11069A   21046.88282339 -.00000340  00000-0  00000-0 0  9996
2 37933   0.0605 275.9185 0001489  40.8774 252.5945  1.00272669 25335
YAOGAN 13               
1 37941U 11072A   21047.47171681  .00000607  00000-0  32615-4 0  9998
2 37941  97.5795 349.1768 0000765   0.1296 108.9946 15.18711264511002
BEIDOU 10               
1 37948U 11073A   21047.14285451 -.00000139  00000-0  00000+0 0  9990
2 37948  51.1680 295.0527 0069371 215.4310 143.1401  1.00280374 33876
LUCH 5A                 
1 37951U 11074B   21047.57425150 -.00000051  00000-0  00000+0 0  9997
2 37951   3.8291 108.2570 0003066 268.7133 143.4551  1.00270672 33675
SSOT                    
1 38011U 11076E   21047.39416143  .00000101  00000-0  19185-4 0  9993
2 38011  97.8430 125.9637 0001470  90.5701 269.5692 14.82027860496043
PLEIADES 1A             
1 38012U 11076F   21047.40641128 -.00000020  00000-0  54530-5 0  9994
2 38012  98.1753 124.3270 0001702  83.7603 276.3797 14.58567288488224
NIGCOMSAT 1R            
1 38014U 11077A   21047.24146781  .00000141  00000-0  00000+0 0  9994
2 38014   0.0332 268.2604 0000494 328.9701  38.6075  1.00270440 33509
ZIYUAN 1-02C (ZY 1-02C) 
1 38038U 11079A   21047.40394335  .00000063  00000-0  37683-4 0  9995
2 38038  98.6568 107.4338 0005900 262.4427  97.6095 14.35299812479766
GLOBALSTAR M084         
1 38040U 11080A   21047.15744272 -.00000109  00000-0 -26958-4 0  9997
2 38040  51.9994 184.7602 0001104 106.4630  65.2636 12.62263403423150
GLOBALSTAR M080         
1 38041U 11080B   21046.80969661 -.00000117  00000-0 -72253-4 0  9998
2 38041  52.0050 186.8710 0001185 105.3016  44.6322 12.62268341423030
GLOBALSTAR M082         
1 38042U 11080C   21047.18735354 -.00000077  00000-0  14938-3 0  9990
2 38042  52.0071 141.0001 0000433  92.9879 274.6130 12.62264560423887
GLOBALSTAR M092         
1 38043U 11080D   21047.47982834 -.00000104  00000-0  95027-6 0  9992
2 38043  52.0058 230.3973 0000909 109.0322 268.6181 12.62270196422413
GLOBALSTAR M090         
1 38044U 11080E   21046.69162374 -.00000106  00000-0 -11968-4 0  9998
2 38044  51.9886 138.3583 0000694  99.9081  53.7799 12.62265809423767
GLOBALSTAR M086         
1 38045U 11080F   21047.55828472 -.00000090  00000-0  78690-4 0  9999
2 38045  51.9896 136.1478 0001912  85.4658 288.2144 12.62265171423921
ZIYUAN 3-1 (ZY 3-1)     
1 38046U 12001A   21047.42782256  .00000633  00000-0  31303-4 0  9991
2 38046  97.3935 123.7102 0004438  67.2244 356.5965 15.21343685505714
FENGYUN 2F              
1 38049U 12002A   21047.45616616 -.00000361  00000-0  00000+0 0  9998
2 38049   2.6279  82.6950 0004312  24.2115 316.0999  1.00267142 33362
WGS F4 (USA 233)        
1 38070U 12003A   21046.93243664 -.00000220  00000-0  00000-0 0  9999
2 38070   0.0092 143.3516 0000167 101.9299 324.8774  1.00271796 24621
LARES                   
1 38077U 12006A   21046.60679300 -.00000051  00000-0 -77978-4 0  9998
2 38077  69.4971  18.8832 0006413  81.3607 278.8130 12.54930981412820
SES-4                   
1 38087U 12007A   21047.32130465 -.00000171  00000-0  00000+0 0  9993
2 38087   0.0153  55.8418 0002791 267.3491 276.9723  1.00278607 32966
BEIDOU 11               
1 38091U 12008A   21047.14689959  .00000051  00000-0  00000+0 0  9992
2 38091   1.9980  71.7499 0003715 259.0223 287.2357  1.00276199 32954
MUOS-1                  
1 38093U 12009A   21046.87512265 -.00000131  00000-0  00000-0 0  9990
2 38093   2.5668  16.4541 0057828 357.3047 347.3435  1.00272978 32912
INTELSAT 22 (IS-22)     
1 38098U 12011A   21047.10188197 -.00000063  00000-0  00000+0 0  9991
2 38098   0.0211 234.4431 0002822  94.0662 286.5519  1.00270290 32525
APSTAR 7                
1 38107U 12013A   21046.93938284 -.00000107  00000-0  00000-0 0  9994
2 38107   0.0175 124.8621 0002492 216.1738 219.7481  1.00272773 32289
YAHSAT 1B               
1 38245U 12016A   21047.29563418  .00000122  00000-0  00000+0 0  9998
2 38245   0.0102 133.5600 0001797 191.2727 335.6642  1.00273374 32391
BEIDOU 12               
1 38250U 12018A   21047.45609059 -.00000095  00000-0  00000+0 0  9996
2 38250  56.7566   9.6068 0023874 251.4803 279.1710  1.86234230 60036
BEIDOU 13               
1 38251U 12018B   21047.38897733 -.00000096  00000-0  00000+0 0  9998
2 38251  56.6797   8.9654 0014994 257.0217 273.0760  1.86234067 60035
AEHF-2 (USA 235)        
1 38254U 12019A   21047.49191757 -.00000279  00000-0  00000+0 0  9990
2 38254   2.4017  53.9860 0003145 343.3512 218.8480  1.00276010 32152
TIANHUI 1-02            
1 38256U 12020A   21047.57906523  .00000758  00000-0  34815-4 0  9995
2 38256  97.4399 174.7149 0015044 192.4902 223.5625 15.23379650488434
YAOGAN 14               
1 38257U 12021A   21047.57032730  .00000792  00000-0  36137-4 0  9994
2 38257  97.4737 184.2401 0001944  99.0092 323.8064 15.23553393489568
JCSAT-13                
1 38331U 12023A   21047.42223660 -.00000360  00000-0  00000+0 0  9994
2 38331   0.0480 284.3575 0000941 124.9955  13.2640  1.00272560 32054
VINASAT-2               
1 38332U 12023B   21047.45327025 -.00000333  00000-0  00000+0 0  9998
2 38332   0.0478 293.6618 0002304  47.9859  99.9999  1.00271101 32097
GCOM-W1 (SHIZUKU)       
1 38337U 12025A   21047.10408104  .00000044  00000-0  19866-4 0  9998
2 38337  98.2180 349.5731 0000384 358.0157  12.6830 14.57111889465482
ARIRANG-3 (KOMPSAT-3)   
1 38338U 12025B   21047.36440981  .00000026  00000-0  14719-4 0  9998
2 38338  98.1756 348.5878 0012372  93.9910 266.2702 14.61649518466963
SDS-4                   
1 38339U 12025C   21047.36211026  .00000031  00000-0  13684-4 0  9991
2 38339  98.3153  99.0956 0007743  19.1424 341.0071 14.70619443469562
NIMIQ 6                 
1 38342U 12026A   21047.30752137 -.00000178  00000-0  00000+0 0  9999
2 38342   0.0114 255.1020 0002228  66.6318 204.3679  1.00270895 32072
CHINASAT 2A (ZX 2A)     
1 38352U 12028A   21046.88035321 -.00000298  00000-0  00000-0 0  9997
2 38352   0.0495 269.9553 0001986  91.1933 200.0930  1.00270614 31852
YAOGAN 15               
1 38354U 12029A   21047.42649245 -.00000027  00000-0  48372-4 0  9995
2 38354 100.6069 193.9802 0025382  19.4388 340.7698 13.18262464418920
INTELSAT 19 (IS-19)     
1 38356U 12030A   21047.55885646 -.00000060  00000-0  00000+0 0  9998
2 38356   0.0173 111.0532 0003092 228.3709 174.4974  1.00272773 31993
NUSTAR                  
1 38358U 12031A   21047.02850179  .00000962  00000-0  26621-4 0  9998
2 38358   6.0267 299.5364 0011653 165.2126 194.8344 14.88449582472343
ECHOSTAR 17             
1 38551U 12035A   21047.53069688 -.00000079  00000-0  00000+0 0  9998
2 38551   0.0147 116.0440 0002092 206.5442 268.0633  1.00273569 31609
METEOSAT-10 (MSG-3)     
1 38552U 12035B   21047.32758564  .00000058  00000-0  00000+0 0  9990
2 38552   1.2238 359.1076 0001012  35.3961 239.2060  1.00276135 31699
SES-5                   
1 38652U 12036A   21047.38799205  .00000030  00000-0  00000+0 0  9995
2 38652   0.0170  77.8349 0001613 239.7958 333.5859  1.00271252 31545
KANOPUS-V 1             
1 38707U 12039A   21047.52288777  .00000704  00000-0  36311-4 0  9999
2 38707  97.4652 329.4562 0001723  84.0604  89.2161 15.19540437475569
BKA 2                   
1 38708U 12039B   21047.51556358  .00000272  00000-0  15700-4 0  9991
2 38708  97.3688 314.5186 0001467  86.1856  86.5907 15.20070838475565
EXACTVIEW-1 (ADS-1B)    
1 38709U 12039C   21047.35166059 -.00000009  00000-0  16495-4 0  9990
2 38709  99.0787  94.9514 0011205  19.4870 340.6734 14.24039620445550
TET-1                   
1 38710U 12039D   21046.87743448  .00003308  00000-0  54340-4 0  9996
2 38710  97.5735  93.9219 0002936  56.0882 304.0649 15.53208402481648
MKA-PN 1                
1 38711U 12039E   21047.41923672 -.00000006  00000-0  17666-4 0  9990
2 38711  99.0754  94.4093 0011804  19.7519 340.4113 14.24317668445631
TIANLIAN 1-03           
1 38730U 12040A   21047.21722588  .00000120  00000-0  00000+0 0  9999
2 38730   0.8102  98.5409 0006354 276.9258 229.4783  1.00271266 31460
COSMOS 2481             
1 38733U 12041A   21046.72187639  .00000036  00000-0  19285-3 0  9995
2 38733  82.4743 209.3071 0018450 359.8993   0.2077 12.42384041388004
GONETS-M 3              
1 38734U 12041B   21047.18859839  .00000009  00000-0 -35853-5 0  9997
2 38734  82.4744 204.1634 0015994   5.5459 354.5786 12.44817114388484
GONETS-M 4              
1 38736U 12041D   21046.71213210  .00000028  00000-0  12706-3 0  9994
2 38736  82.4791 207.4790 0024233 348.2833  11.7679 12.43820601388269
INTELSAT 20 (IS-20)     
1 38740U 12043A   21046.62161498 -.00000031  00000-0  00000-0 0  9997
2 38740   0.0208 123.7659 0001315  58.1578 256.1651  1.00271901 31215
HYLAS 2                 
1 38741U 12043B   21047.19007880  .00000150  00000-0  00000+0 0  9995
2 38741   0.0121 242.3953 0001683  82.6114 280.8401  1.00270981 31327
EXPRESS-MD2             
1 38745U 12044B   21046.78977484  .00008631  25236-5  22332-3 0  9991
2 38745  49.8898 204.4957 2190670 224.2647 116.0887 11.07522174334278
INTELSAT 21 (IS-21)     
1 38749U 12045A   21047.31415130 -.00000289  00000-0  00000+0 0  9994
2 38749   0.0191 221.1057 0002052 103.5881 236.9005  1.00272534 31112
SPOT 6                  
1 38755U 12047A   21047.49053314 -.00000029  00000-0  36670-5 0  9994
2 38755  98.2172 116.6895 0001651  89.7063 270.4327 14.58545539449316
AEROCUBE 4.5A           
1 38767U 12048K   21047.12501758  .00000225  00000-0  33563-4 0  9992
2 38767  64.6655 194.2809 0139408  47.6146 313.6665 14.92582659 78164
AEROCUBE 4.5B           
1 38768U 12048L   21046.72863729  .00000349  00000-0  40474-4 0  9993
2 38768  64.6669 159.6929 0130708  42.0820 319.0241 14.96368031 78272
